[
    {
        "Altitude(m)": 604234.6089041636,
        "Argument of Periapsis(deg)": 0.0,
        "Eccentricity": 0.0,
        "Inclination(deg)": 60.0,
        "Latitude(deg)": 14.117233907504017,
        "Longitude(deg)": -178.2726441898133,
        "Mean Anomaly(deg)": 163.63639999999998,
        "RAAN(deg)": 110.00000000000001,
        "Satellite Name": "Test1 494",
        "Satellite Number": 494,
        "Semi-Major Axis(m)": 6980739.136638005,
        "Time(s)": 0
    },
    {
        "Altitude(m)": 604223.4373874152,
        "Argument of Periapsis(deg)": 0.00010418945913296404,
        "Eccentricity": 0.0,
        "Inclination(deg)": 60.0,
        "Latitude(deg)": 13.582369702484561,
        "Longitude(deg)": -177.98573613754638,
        "Mean Anomaly(deg)": 164.25650614546183,
        "RAAN(deg)": 109.99957995086025,
        "Satellite Name": "Test1 494",
        "Satellite Number": 494,
        "Semi-Major Axis(m)": 6980739.136638005,
        "Time(s)": 10
    }
]